CSS (TIANHE)            
1 48274U 21035A   24066.14056201  .00041129  00000+0  43870-3 0  9994
2 48274  41.4692 352.8548 0006759 117.1689 242.9840 15.63146659162967
